NORAD_CAT_ID,OBJECT_NAME,OBJECT_TYPE,EPOCH,MEAN_MOTION,ECCENTRICITY,INCLINATION,RA_OF_ASC_NODE,ARG_OF_PERICENTER,MEAN_ANOMALY,BSTAR,MEAN_MOTION_DOT,MEAN_MOTION_DDOT,TLE_LINE0,TLE_LINE1,TLE_LINE2,SEMIMAJOR_AXIS,PERIOD,APOGEE,PERIGEE,DECAYED
55923.0,STARLINK-5854,PAYLOAD,2024-06-23 20:39:44,14.98329057,0.0002963,69.9997,77.3523,265.6418,94.4403,4.7176e-05,4.7e-06,0.0,0 STARLINK-5854,1 55923U 23037K   24175.86093197  .00000470  00000-0  47176-4 0  9991,2 55923  69.9997  77.3523 0002963 265.6418  94.4403 14.98329057 70384,6950.196,96.107,574.12,570.001,0.0
55923.0,STARLINK-5854,PAYLOAD,2024-06-23 22:15:52,14.98329292,0.0002959,69.9997,77.184,265.7042,94.3778,4.9392e-05,4.96e-06,0.0,0 STARLINK-5854,1 55923U 23037K   24175.92769182  .00000496  00000-0  49392-4 0  9992,2 55923  69.9997  77.1840 0002959 265.7042  94.3778 14.98329292 70052,6950.195,96.107,574.117,570.004,0.0
55923.0,STARLINK-5854,PAYLOAD,2024-06-24 03:04:16,14.98332017,0.000293,69.9999,76.6791,266.3489,93.7335,7.9593e-05,8.57e-06,0.0,0 STARLINK-5854,1 55923U 23037K   24176.12796934  .00000857  00000-0  79593-4 0  9997,2 55923  69.9999  76.6791 0002930 266.3489  93.7335 14.98332017 70088,6950.187,96.107,574.088,570.015,0.0
55923.0,STARLINK-5854,PAYLOAD,2024-06-24 20:41:45,14.98328857,0.0002899,70.0,74.828,267.4289,92.6538,3.0803e-06,-5.6e-07,0.0,0 STARLINK-5854,1 55923U 23037K   24176.86233308 -.00000056  00000-0  30803-5 0  9993,2 55923  70.0000  74.8280 0002899 267.4289  92.6538 14.98328857 70531,6950.196,96.107,574.076,570.047,0.0
55923.0,STARLINK-5854,PAYLOAD,2024-06-25 03:06:17,14.98331232,0.0002871,70.0001,74.1552,268.3151,91.768,3.1875e-05,2.87e-06,0.0,0 STARLINK-5854,1 55923U 23037K   24177.12937090  .00000287  00000-0  31875-4 0  9996,2 55923  70.0001  74.1552 0002871 268.3151  91.7680 14.98331232 70231,6950.189,96.107,574.049,570.059,0.0
55923.0,STARLINK-5854,PAYLOAD,2024-06-25 20:43:45,14.98335093,0.0002879,70.0002,72.3036,267.0066,93.0763,4.8319e-05,4.84e-06,0.0,0 STARLINK-5854,1 55923U 23037K   24177.86372677  .00000484  00000-0  48319-4 0  9991,2 55923  70.0002  72.3036 0002879 267.0066  93.0763 14.98335093 70683,6950.177,96.107,574.043,570.041,0.0
55923.0,STARLINK-5854,PAYLOAD,2024-06-25 22:19:54,14.98335369,0.0002871,70.0002,72.1353,267.5323,92.5508,5.1686e-05,5.24e-06,0.0,0 STARLINK-5854,1 55923U 23037K   24177.93048637  .00000524  00000-0  51686-4 0  9991,2 55923  70.0002  72.1353 0002871 267.5323  92.5508 14.98335369 70357,6950.176,96.107,574.037,570.046,0.0
55923.0,STARLINK-5854,PAYLOAD,2024-06-26 03:08:17,14.98339421,0.0002821,70.0003,71.6305,267.4392,92.6444,9.8664e-05,1.085e-05,0.0,0 STARLINK-5854,1 55923U 23037K   24178.13076172  .00001085  00000-0  98664-4 0  9999,2 55923  70.0003  71.6305 0002821 267.4392  92.6444 14.98339421 70385,6950.164,96.106,573.989,570.068,0.0
55923.0,STARLINK-5854,PAYLOAD,2024-06-26 22:21:55,14.98327408,0.000265,70.0009,69.6128,246.6472,113.4409,2.9619e-05,2.6e-06,0.0,0 STARLINK-5854,1 55923U 23037K   24178.93188922  .00000260  00000-0  29619-4 0  9992,2 55923  70.0009  69.6128 0002650 246.6472 113.4409 14.98327408 70508,6950.201,96.107,573.908,570.224,0.0
55923.0,STARLINK-5854,PAYLOAD,2024-06-27 03:10:19,14.98326629,0.000259,70.0009,69.1076,256.9735,103.1135,1.7107e-05,1.11e-06,0.0,0 STARLINK-5854,1 55923U 23037K   24179.13217160  .00000111  00000-0  17107-4 0  9996,2 55923  70.0009  69.1076 0002590 256.9735 103.1135 14.98326629 70870,6950.203,96.107,573.868,570.268,0.0
55923.0,STARLINK-5854,PAYLOAD,2024-06-27 20:47:48,14.98331061,0.0002809,70.0003,67.2543,265.758,94.3258,-4.7965e-05,-6.65e-06,0.0,0 STARLINK-5854,1 55923U 23037K   24179.86653078 -.00000665  00000-0 -47965-4 0  9999,2 55923  70.0003  67.2543 0002809 265.7580  94.3258 14.98331061 70649,6950.19,96.107,574.007,570.102,0.0
55923.0,STARLINK-5854,PAYLOAD,2024-06-28 09:36:52,14.98335257,0.000281,70.0002,65.9074,268.3343,91.7494,-3.8758e-05,-5.55e-06,0.0,0 STARLINK-5854,1 55923U 23037K   24180.40060731 -.00000555  00000-0 -38758-4 0  9997,2 55923  70.0002  65.9074 0002810 268.3343  91.7494 14.98335257 71061,6950.177,96.107,573.995,570.089,0.0
55923.0,STARLINK-5854,PAYLOAD,2024-06-28 22:25:56,14.9833557,0.0002766,70.0001,64.5608,269.3757,90.7085,4.7722e-05,4.77e-06,0.0,0 STARLINK-5854,1 55923U 23037K   24180.93468568  .00000477  00000-0  47722-4 0  9997,2 55923  70.0001  64.5608 0002766 269.3757  90.7085 14.98335570 70802,6950.176,96.107,573.963,570.118,0.0
55923.0,STARLINK-5854,PAYLOAD,2024-06-29 01:38:12,14.98340787,0.0002756,70.0002,64.2243,262.0141,98.0706,0.00010922,1.211e-05,0.0,0 STARLINK-5854,1 55923U 23037K   24181.06819979  .00001211  00000-0  10922-3 0  9996,2 55923  70.0002  64.2243 0002756 262.0141  98.0706 14.98340787 71168,6950.16,96.106,573.94,570.109,0.0
55923.0,STARLINK-5854,PAYLOAD,2024-06-29 19:15:43,14.9831687,0.0003156,69.9998,62.3725,268.5478,91.5319,-5.5145e-05,-7.51e-06,0.0,0 STARLINK-5854,1 55923U 23037K   24181.80258192 -.00000751  00000-0 -55145-4 0  9999,2 55923  69.9998  62.3725 0003156 268.5478  91.5319 14.98316870 71278,6950.233,96.108,574.292,569.905,0.0
55923.0,STARLINK-5854,PAYLOAD,2024-06-29 22:27:59,14.98318859,0.0003228,69.9994,62.0351,268.9218,91.1571,-8.509e-05,-1.108e-05,0.0,0 STARLINK-5854,1 55923U 23037K   24181.93610220 -.00001108  00000-0 -85090-4 0  9996,2 55923  69.9994  62.0351 0003228 268.9218  91.1571 14.98318859 70951,6950.227,96.108,574.336,569.849,0.0
55923.0,STARLINK-5854,PAYLOAD,2024-06-30 09:40:55,14.98326867,0.0003119,69.9996,60.8567,269.0209,91.0592,1.3105e-05,6.3e-07,0.0,0 STARLINK-5854,1 55923U 23037K   24182.40341737  .00000063  00000-0  13105-4 0  9998,2 55923  69.9996  60.8567 0003119 269.0209  91.0592 14.98326867 71365,6950.203,96.107,574.235,569.9,0.0
55923.0,STARLINK-5854,PAYLOAD,2024-06-30 20:53:47,14.98377417,0.0002399,70.0014,59.6741,270.738,89.3504,0.00056445,6.656e-05,0.0,0 STARLINK-5854,1 55923U 23037K   24182.87068784  .00006656  00000-0  56445-3 0  9994,2 55923  70.0014  59.6741 0002399 270.7380  89.3504 14.98377417 71435,6950.046,96.104,573.579,570.244,0.0
55923.0,STARLINK-5854,PAYLOAD,2024-06-30 22:29:54,14.98391681,0.0003297,69.999,59.5099,269.8092,90.2689,0.00056851,6.708e-05,0.0,0 STARLINK-5854,1 55923U 23037K   24182.93743481  .00006708  00000-0  56851-3 0  9994,2 55923  69.9990  59.5099 0003297 269.8092  90.2689 14.98391681 71105,6950.002,96.103,574.159,569.576,0.0
55923.0,STARLINK-5854,PAYLOAD,2024-07-01 01:42:14,14.98336966,0.0003188,69.9987,59.1727,274.8637,85.2158,-5.8106e-05,-7.86e-06,0.0,0 STARLINK-5854,1 55923U 23037K   24183.07100115 -.00000786  00000-0 -58106-4 0  9999,2 55923  69.9987  59.1727 0003188 274.8637  85.2158 14.98336966 71464,6950.171,96.107,574.252,569.821,0.0
55923.0,STARLINK-5854,PAYLOAD,2024-07-01 09:42:55,14.98329789,0.0002691,70.0003,58.332,278.3757,81.7097,-0.0001352,-1.706e-05,0.0,0 STARLINK-5854,1 55923U 23037K   24183.40480845 -.00001706  00000-0 -13520-3 0  9990,2 55923  70.0003  58.3320 0002691 278.3757  81.7097 14.98329789 71510,6950.194,96.107,573.929,570.188,0.0
55923.0,STARLINK-5854,PAYLOAD,2024-07-01 14:31:19,14.9831757,0.000294,69.9997,57.8269,271.7428,88.3394,8.4601e-05,9.16e-06,0.0,0 STARLINK-5854,1 55923U 23037K   24183.60509237  .00000916  00000-0  84601-4 0  9998,2 55923  69.9997  57.8269 0002940 271.7428  88.3394 14.98317570 71208,6950.231,96.108,574.14,570.053,0.0
55923.0,STARLINK-5854,PAYLOAD,2024-07-01 20:55:52,14.98317893,0.0002962,69.9998,57.1531,269.6707,90.4113,8.3786e-05,9.07e-06,0.0,0 STARLINK-5854,1 55923U 23037K   24183.87213415  .00000907  00000-0  83786-4 0  9990,2 55923  69.9998  57.1531 0002962 269.6707  90.4113 14.98317893 71586,6950.23,96.108,574.154,570.037,0.0
55923.0,STARLINK-5854,PAYLOAD,2024-07-01 22:32:00,14.9831978,0.0002888,69.9998,56.9849,271.0829,89.0,0.00010333,1.14e-05,0.0,0 STARLINK-5854,1 55923U 23037K   24183.93889318  .00001140  00000-0  10333-3 0  9995,2 55923  69.9998  56.9849 0002888 271.0829  89.0000 14.98319780 71254,6950.224,96.108,574.097,570.082,0.0
55923.0,STARLINK-5854,PAYLOAD,2024-07-02 14:33:20,14.9834488,0.0002617,70.0002,55.3012,274.2315,85.8545,-0.00027968,-3.43e-05,0.0,0 STARLINK-5854,1 55923U 23037K   24184.60648765 -.00003430  00000-0 -27968-3 0  9997,2 55923  70.0002  55.3012 0002617 274.2315  85.8545 14.98344880 71351,6950.147,96.106,573.831,570.193,0.0
55923.0,STARLINK-5854,PAYLOAD,2024-07-02 20:57:52,14.98342198,0.000277,70.0001,54.6279,272.2089,87.8753,-0.00024543,-3.021e-05,0.0,0 STARLINK-5854,1 55923U 23037K   24184.87352592 -.00003021  00000-0 -24543-3 0  9998,2 55923  70.0001  54.6279 0002770 272.2089  87.8753 14.98342198 71738,6950.155,96.106,573.945,570.095,0.0
55923.0,STARLINK-5854,PAYLOAD,2024-07-02 22:34:00,14.98353136,0.0002678,70.0,54.4596,270.2629,89.8223,-0.00046117,-5.594e-05,0.0,0 STARLINK-5854,1 55923U 23037K   24184.94028241 -.00005594  00000-0 -46117-3 0  9995,2 55923  70.0000  54.4596 0002678 270.2629  89.8223 14.98353136 71404,6950.121,96.106,573.848,570.125,0.0
55923.0,STARLINK-5854,PAYLOAD,2024-07-03 01:46:16,14.98355028,0.0002696,69.9999,54.1229,271.1175,88.9675,-0.00044925,-5.453e-05,0.0,0 STARLINK-5854,1 55923U 23037K   24185.07379885 -.00005453  00000-0 -44925-3 0  9992,2 55923  69.9999  54.1229 0002696 271.1175  88.9675 14.98355028 71766,6950.115,96.105,573.854,570.107,0.0
55923.0,STARLINK-5854,PAYLOAD,2024-07-03 20:59:53,14.98329288,0.0002643,69.9999,52.1032,270.0463,90.0393,0.00018073,2.064e-05,0.0,0 STARLINK-5854,1 55923U 23037K   24185.87492552  .00002064  00000-0  18073-3 0  9995,2 55923  69.9999  52.1032 0002643 270.0463  90.0393 14.98329288 71889,6950.195,96.107,573.897,570.223,0.0
55923.0,STARLINK-5854,PAYLOAD,2024-07-04 14:37:22,14.98327243,0.0002653,70.0,50.2519,268.014,92.0715,0.00010929,1.211e-05,0.0,0 STARLINK-5854,1 55923U 23037K   24186.60928950  .00001211  00000-0  10929-3 0  9998,2 55923  70.0000  50.2519 0002653 268.0140  92.0715 14.98327243 71658,6950.201,96.107,573.91,570.223,0.0
